ONEWEB-0685             
1 54679U 22166AP  25016.46455589  .00000119  00000+0  25569-3 0  9998
2 54679  87.9318 346.9448 0001609  76.6303 283.5010 13.21827343103623
ONEWEB-0712             
1 54680U 22166AQ  25016.43268939  .00000043  00000+0  77833-4 0  9996
2 54680  87.9114 331.7320 0001152  83.7810 276.3452 13.16593131104524
ONEWEB-0714             
1 54681U 22166AR  25016.84933127 -.00000251  00000+0 -63984-3 0  9994
2 54681  87.9322 346.8582 0001656  78.2008 281.9312 13.21825147103796
ONEWEB-0532             
1 55140U 23004A   25016.66739277  .00000031  00000+0  46204-4 0  9998
2 55140  87.9096 108.7682 0002087  93.3840 266.7530 13.17647813 99561
ONEWEB-0533             
1 55141U 23004B   25016.64568119  .00000304  00000+0  80836-3 0  9993
2 55141  87.8873  93.5031 0001670 102.6808 257.4507 13.12446298100303
ONEWEB-0541             
1 55142U 23004C   25016.34798001  .00000390  00000+0  10655-2 0  9992
2 55142  87.8912 124.0613 0001724 107.1583 252.9733 13.11417139 98201
ONEWEB-0543             
1 55143U 23004D   25016.59702583  .00000000  00000+0 -31858-4 0  9999
2 55143  87.9077  78.3067 0001542 109.4876 250.6422 13.18688101101613
ONEWEB-0544             
1 55144U 23004E   25016.59071290  .00000064  00000+0  13002-3 0  9993
2 55144  87.9079  78.2956 0001945 106.5644 253.5701 13.18688406101610
